[{"OBJECT_NAME":"STARLINK-30841","OBJECT_ID":"2023-170C","EPOCH":"2026-03-09T22:00:01.999584","MEAN_MOTION":15.26741776,"ECCENTRICITY":0.00014849,"INCLINATION":42.999,"RA_OF_ASC_NODE":193.0472,"ARG_OF_PERICENTER":269.2336,"MEAN_ANOMALY":60.4897,"EPHEMERIS_TYPE":0,"CLASSIFICATION_TYPE":"U","NORAD_CAT_ID":58208,"ELEMENT_SET_NO":999,"REV_AT_EPOCH":578,"BSTAR":0.00059454283,"MEAN_MOTION_DOT":0.00015723,"MEAN_MOTION_DDOT":0},{"OBJECT_NAME":"FLOCK 4G-15","OBJECT_ID":"2025-009BX","EPOCH":"2026-03-09T17:13:37.807680","MEAN_MOTION":15.27266411,"ECCENTRICITY":0.00036988,"INCLINATION":97.4054,"RA_OF_ASC_NODE":151.1927,"ARG_OF_PERICENTER":316.8208,"MEAN_ANOMALY":43.274,"EPHEMERIS_TYPE":0,"CLASSIFICATION_TYPE":"U","NORAD_CAT_ID":62678,"ELEMENT_SET_NO":999,"REV_AT_EPOCH":12135,"BSTAR":0.00047574812,"MEAN_MOTION_DOT":0.00012647,"MEAN_MOTION_DDOT":0}]
